CCSDS_OMM_VERS = 2.0
CREATION_DATE  = 
ORIGINATOR     = 

OBJECT_NAME    = STARLINK-36900
OBJECT_ID      = 2026-038N
CENTER_NAME    = EARTH
REF_FRAME      = TEME
TIME_SYSTEM    = UTC
MEAN_ELEMENT_THEORY = SGP/SGP4

EPOCH          = 2026-03-27T13:18:03.245472
MEAN_MOTION    = 15.49061361
ECCENTRICITY   = .00011319
INCLINATION    = 97.2833
RA_OF_ASC_NODE = 97.3596
ARG_OF_PERICENTER = 143.9764
MEAN_ANOMALY   = 216.1563

EPHEMERIS_TYPE = 0
CLASSIFICATION_TYPE = U
NORAD_CAT_ID   = 67973
ELEMENT_SET_NO = 999
REV_AT_EPOCH   = 597
BSTAR          = -.12069062E-2
MEAN_MOTION_DOT = -.64902E-3
MEAN_MOTION_DDOT = 0

CCSDS_OMM_VERS = 2.0
CREATION_DATE  = 
ORIGINATOR     = 

OBJECT_NAME    = STARLINK-36901
OBJECT_ID      = 2026-038P
CENTER_NAME    = EARTH
REF_FRAME      = TEME
TIME_SYSTEM    = UTC
MEAN_ELEMENT_THEORY = SGP/SGP4

EPOCH          = 2026-03-27T14:00:03.000384
MEAN_MOTION    = 15.33461413
ECCENTRICITY   = .00020783
INCLINATION    = 97.2849
RA_OF_ASC_NODE = 97.4547
ARG_OF_PERICENTER = 117.1654
MEAN_ANOMALY   = 203.9408

EPHEMERIS_TYPE = 0
CLASSIFICATION_TYPE = U
NORAD_CAT_ID   = 67974
ELEMENT_SET_NO = 999
REV_AT_EPOCH   = 607
BSTAR          = -.41864996E-3
MEAN_MOTION_DOT = -.13574E-3
MEAN_MOTION_DDOT = 0

CCSDS_OMM_VERS = 2.0
CREATION_DATE  = 
ORIGINATOR     = 

OBJECT_NAME    = STARLINK-36883
OBJECT_ID      = 2026-038Q
CENTER_NAME    = EARTH
REF_FRAME      = TEME
TIME_SYSTEM    = UTC
MEAN_ELEMENT_THEORY = SGP/SGP4

EPOCH          = 2026-03-27T14:00:03.000384
MEAN_MOTION    = 15.37271877
ECCENTRICITY   = .00017303
INCLINATION    = 97.2855
RA_OF_ASC_NODE = 97.4834
ARG_OF_PERICENTER = 86.4091
MEAN_ANOMALY   = 305.3459

EPHEMERIS_TYPE = 0
CLASSIFICATION_TYPE = U
NORAD_CAT_ID   = 67975
ELEMENT_SET_NO = 999
REV_AT_EPOCH   = 607
BSTAR          = -.90598426E-1
MEAN_MOTION_DOT = -.2922181E-1
MEAN_MOTION_DDOT = 0

CCSDS_OMM_VERS = 2.0
CREATION_DATE  = 
ORIGINATOR     = 

OBJECT_NAME    = STARLINK-36880
OBJECT_ID      = 2026-038R
CENTER_NAME    = EARTH
REF_FRAME      = TEME
TIME_SYSTEM    = UTC
MEAN_ELEMENT_THEORY = SGP/SGP4

EPOCH          = 2026-03-27T13:33:36.491616
MEAN_MOTION    = 15.49187572
ECCENTRICITY   = .00014555
INCLINATION    = 97.2863
RA_OF_ASC_NODE = 97.3421
ARG_OF_PERICENTER = 86.1708
MEAN_ANOMALY   = 273.9710

EPHEMERIS_TYPE = 0
CLASSIFICATION_TYPE = U
NORAD_CAT_ID   = 67976
ELEMENT_SET_NO = 999
REV_AT_EPOCH   = 597
BSTAR          = .1748202E-2
MEAN_MOTION_DOT = .96154E-3
MEAN_MOTION_DDOT = 0

CCSDS_OMM_VERS = 2.0
CREATION_DATE  = 
ORIGINATOR     = 

OBJECT_NAME    = STARLINK-36904
OBJECT_ID      = 2026-038S
CENTER_NAME    = EARTH
REF_FRAME      = TEME
TIME_SYSTEM    = UTC
MEAN_ELEMENT_THEORY = SGP/SGP4

EPOCH          = 2026-03-27T14:00:03.000384
MEAN_MOTION    = 15.36678706
ECCENTRICITY   = .00019147
INCLINATION    = 97.2844
RA_OF_ASC_NODE = 97.4816
ARG_OF_PERICENTER = 77.0406
MEAN_ANOMALY   = 300.2812

EPHEMERIS_TYPE = 0
CLASSIFICATION_TYPE = U
NORAD_CAT_ID   = 67977
ELEMENT_SET_NO = 999
REV_AT_EPOCH   = 608
BSTAR          = -.77481758E-1
MEAN_MOTION_DOT = -.2455269E-1
MEAN_MOTION_DDOT = 0

CCSDS_OMM_VERS = 2.0
CREATION_DATE  = 
ORIGINATOR     = 

OBJECT_NAME    = STARLINK-36364
OBJECT_ID      = 2026-038T
CENTER_NAME    = EARTH
REF_FRAME      = TEME
TIME_SYSTEM    = UTC
MEAN_ELEMENT_THEORY = SGP/SGP4

EPOCH          = 2026-03-27T14:00:03.000384
MEAN_MOTION    = 15.33439338
ECCENTRICITY   = .00012717
INCLINATION    = 97.2852
RA_OF_ASC_NODE = 97.4994
ARG_OF_PERICENTER = 96.7890
MEAN_ANOMALY   = 329.3791

EPHEMERIS_TYPE = 0
CLASSIFICATION_TYPE = U
NORAD_CAT_ID   = 67978
ELEMENT_SET_NO = 999
REV_AT_EPOCH   = 608
BSTAR          = -.43237598E-3
MEAN_MOTION_DOT = -.14006E-3
MEAN_MOTION_DDOT = 0

CCSDS_OMM_VERS = 2.0
CREATION_DATE  = 
ORIGINATOR     = 

OBJECT_NAME    = STARLINK-36359
OBJECT_ID      = 2026-038U
CENTER_NAME    = EARTH
REF_FRAME      = TEME
TIME_SYSTEM    = UTC
MEAN_ELEMENT_THEORY = SGP/SGP4

EPOCH          = 2026-03-27T14:00:03.000384
MEAN_MOTION    = 15.34304017
ECCENTRICITY   = .0001241
INCLINATION    = 97.2848
RA_OF_ASC_NODE = 97.4602
ARG_OF_PERICENTER = 115.2832
MEAN_ANOMALY   = 216.5550

EPHEMERIS_TYPE = 0
CLASSIFICATION_TYPE = U
NORAD_CAT_ID   = 67979
ELEMENT_SET_NO = 999
REV_AT_EPOCH   = 608
BSTAR          = -.86328608E-4
MEAN_MOTION_DOT = -.2938E-4
MEAN_MOTION_DDOT = 0

CCSDS_OMM_VERS = 2.0
CREATION_DATE  = 
ORIGINATOR     = 

OBJECT_NAME    = STARLINK-36882
OBJECT_ID      = 2026-038V
CENTER_NAME    = EARTH
REF_FRAME      = TEME
TIME_SYSTEM    = UTC
MEAN_ELEMENT_THEORY = SGP/SGP4

EPOCH          = 2026-03-27T14:00:03.000384
MEAN_MOTION    = 15.35610130
ECCENTRICITY   = .00015642
INCLINATION    = 97.2853
RA_OF_ASC_NODE = 97.4766
ARG_OF_PERICENTER = 94.5886
MEAN_ANOMALY   = 277.8144

EPHEMERIS_TYPE = 0
CLASSIFICATION_TYPE = U
NORAD_CAT_ID   = 67980
ELEMENT_SET_NO = 999
REV_AT_EPOCH   = 608
BSTAR          = -.58420801E-1
MEAN_MOTION_DOT = -.1817841E-1
MEAN_MOTION_DDOT = 0

CCSDS_OMM_VERS = 2.0
CREATION_DATE  = 
ORIGINATOR     = 

OBJECT_NAME    = STARLINK-36874
OBJECT_ID      = 2026-038W
CENTER_NAME    = EARTH
REF_FRAME      = TEME
TIME_SYSTEM    = UTC
MEAN_ELEMENT_THEORY = SGP/SGP4

EPOCH          = 2026-03-27T14:00:03.000384
MEAN_MOTION    = 15.33449493
ECCENTRICITY   = .00013382
INCLINATION    = 97.2851
RA_OF_ASC_NODE = 97.5057
ARG_OF_PERICENTER = 101.0550
MEAN_ANOMALY   = 340.1352

EPHEMERIS_TYPE = 0
CLASSIFICATION_TYPE = U
NORAD_CAT_ID   = 67981
ELEMENT_SET_NO = 999
REV_AT_EPOCH   = 608
BSTAR          = -.49801596E-3
MEAN_MOTION_DOT = -.16121E-3
MEAN_MOTION_DDOT = 0

CCSDS_OMM_VERS = 2.0
CREATION_DATE  = 
ORIGINATOR     = 

OBJECT_NAME    = STARLINK-36879
OBJECT_ID      = 2026-038X
CENTER_NAME    = EARTH
REF_FRAME      = TEME
TIME_SYSTEM    = UTC
MEAN_ELEMENT_THEORY = SGP/SGP4

EPOCH          = 2026-03-27T13:10:38.746848
MEAN_MOTION    = 15.49197116
ECCENTRICITY   = .00018488
INCLINATION    = 97.2822
RA_OF_ASC_NODE = 97.3633
ARG_OF_PERICENTER = 93.4547
MEAN_ANOMALY   = 266.6916

EPHEMERIS_TYPE = 0
CLASSIFICATION_TYPE = U
NORAD_CAT_ID   = 67982
ELEMENT_SET_NO = 999
REV_AT_EPOCH   = 597
BSTAR          = .13346781E-2
MEAN_MOTION_DOT = .73199E-3
MEAN_MOTION_DDOT = 0

CCSDS_OMM_VERS = 2.0
CREATION_DATE  = 
ORIGINATOR     = 

OBJECT_NAME    = STARLINK-36867
OBJECT_ID      = 2026-038Y
CENTER_NAME    = EARTH
REF_FRAME      = TEME
TIME_SYSTEM    = UTC
MEAN_ELEMENT_THEORY = SGP/SGP4

EPOCH          = 2026-03-27T14:24:32.202144
MEAN_MOTION    = 15.49206852
ECCENTRICITY   = .00015753
INCLINATION    = 97.2848
RA_OF_ASC_NODE = 97.4463
ARG_OF_PERICENTER = 96.1982
MEAN_ANOMALY   = 263.9449

EPHEMERIS_TYPE = 0
CLASSIFICATION_TYPE = U
NORAD_CAT_ID   = 67983
ELEMENT_SET_NO = 999
REV_AT_EPOCH   = 598
BSTAR          = .13223856E-2
MEAN_MOTION_DOT = .72542E-3
MEAN_MOTION_DDOT = 0

CCSDS_OMM_VERS = 2.0
CREATION_DATE  = 
ORIGINATOR     = 

OBJECT_NAME    = STARLINK-36266
OBJECT_ID      = 2026-038Z
CENTER_NAME    = EARTH
REF_FRAME      = TEME
TIME_SYSTEM    = UTC
MEAN_ELEMENT_THEORY = SGP/SGP4

EPOCH          = 2026-03-27T14:00:03.000384
MEAN_MOTION    = 15.33451796
ECCENTRICITY   = .0001142
INCLINATION    = 97.2850
RA_OF_ASC_NODE = 97.5185
ARG_OF_PERICENTER = 79.6414
MEAN_ANOMALY   = 31.5167

EPHEMERIS_TYPE = 0
CLASSIFICATION_TYPE = U
NORAD_CAT_ID   = 67984
ELEMENT_SET_NO = 999
REV_AT_EPOCH   = 605
BSTAR          = -.56451338E-3
MEAN_MOTION_DOT = -.1826E-3
MEAN_MOTION_DDOT = 0

