STARLINK-36900          
1 67973U 26038N   26086.55420423 -.00064902  00000+0 -12069-2 0  9990
2 67973  97.2833  97.3596 0001131 143.9764 216.1563 15.49061361  5976
STARLINK-36901          
1 67974U 26038P   26086.58336806 -.00013574  00000+0 -41865-3 0  9991
2 67974  97.2849  97.4547 0002078 117.1654 203.9408 15.33461413  6072
STARLINK-36883          
1 67975U 26038Q   26086.58336806 -.02922181  00000+0 -90598-1 0  9992
2 67975  97.2855  97.4834 0001730  86.4091 305.3459 15.37271877  6076
STARLINK-36880          
1 67976U 26038R   26086.56500569  .00096154  00000+0  17482-2 0  9990
2 67976  97.2863  97.3421 0001455  86.1708 273.9710 15.49187572  5972
STARLINK-36904          
1 67977U 26038S   26086.58336806 -.02455269  00000+0 -77482-1 0  9999
2 67977  97.2844  97.4816 0001914  77.0406 300.2812 15.36678706  6085
STARLINK-36364          
1 67978U 26038T   26086.58336806 -.00014006  00000+0 -43238-3 0  9992
2 67978  97.2852  97.4994 0001271  96.7890 329.3791 15.33439338  6084
STARLINK-36359          
1 67979U 26038U   26086.58336806 -.00002938  00000+0 -86329-4 0  9993
2 67979  97.2848  97.4602 0001241 115.2832 216.5550 15.34304017  6082
STARLINK-36882          
1 67980U 26038V   26086.58336806 -.01817841  00000+0 -58421-1 0  9992
2 67980  97.2853  97.4766 0001564  94.5886 277.8144 15.35610130  6083
STARLINK-36874          
1 67981U 26038W   26086.58336806 -.00016121  00000+0 -49802-3 0  9999
2 67981  97.2851  97.5057 0001338 101.0550 340.1352 15.33449493  6082
STARLINK-36879          
1 67982U 26038X   26086.54905957  .00073199  00000+0  13347-2 0  9995
2 67982  97.2822  97.3633 0001848  93.4547 266.6916 15.49197116  5979
STARLINK-36867          
1 67983U 26038Y   26086.60037271  .00072542  00000+0  13224-2 0  9993
2 67983  97.2848  97.4463 0001575  96.1982 263.9449 15.49206852  5980
STARLINK-36266          
1 67984U 26038Z   26086.58336806 -.00018260  00000+0 -56451-3 0  9996
2 67984  97.2850  97.5185 0001142  79.6414  31.5167 15.33451796  6059
